[{"OBJECT_NAME":"STARLINK-6077","OBJECT_ID":"2023-046E","EPOCH":"2026-03-08T12:28:55.363872","MEAN_MOTION":15.02540204,"ECCENTRICITY":0.00010363,"INCLINATION":43.0029,"RA_OF_ASC_NODE":113.4559,"ARG_OF_PERICENTER":257.3211,"MEAN_ANOMALY":102.7515,"EPHEMERIS_TYPE":0,"CLASSIFICATION_TYPE":"U","NORAD_CAT_ID":56097,"ELEMENT_SET_NO":999,"REV_AT_EPOCH":16248,"BSTAR":4.7584072e-5,"MEAN_MOTION_DOT":4.39e-6,"MEAN_MOTION_DDOT":0},{"OBJECT_NAME":"FENGYUN 1C DEB","OBJECT_ID":"1999-025AQU","EPOCH":"2026-03-09T01:25:03.420768","MEAN_MOTION":14.74992504,"ECCENTRICITY":0.01405011,"INCLINATION":99.0317,"RA_OF_ASC_NODE":276.8472,"ARG_OF_PERICENTER":211.6472,"MEAN_ANOMALY":309.6318,"EPHEMERIS_TYPE":0,"CLASSIFICATION_TYPE":"U","NORAD_CAT_ID":30686,"ELEMENT_SET_NO":999,"REV_AT_EPOCH":874,"BSTAR":0.0010181927,"MEAN_MOTION_DOT":7.973e-5,"MEAN_MOTION_DDOT":0}]
